CUBESX-HSE 3 (RS42S)    
1 57178U 23091N   24346.10471113  .00014810  00000+0  79577-3 0  9991
2 57178  97.5918  37.6781 0014477 225.7222 134.2822 15.14912280 80234
MONITOR-4 (RS57S)       
1 57182U 23091S   24346.10568504  .00013343  00000+0  73714-3 0  9994
2 57182  97.5906  37.2888 0014927 227.5520 132.4450 15.13941446 80211
MONITOR-2 (RS39S)       
1 57184U 23091U   24346.11651076  .00007864  00000+0  47063-3 0  9993
2 57184  97.5912  37.0084 0012310 221.8024 138.2266 15.11243392 80195
SVYATOBOR 1 (RS60S)     
1 57187U 23091X   24346.14936666  .00011525  00000+0  63257-3 0  9992
2 57187  97.5919  38.0466 0011469 215.6831 144.3635 15.14252307 80266
VIZARD-METEO (RS38S)    
1 57189U 23091Z   24346.13958907  .00014822  00000+0  75108-3 0  9996
2 57189  97.5908  38.9272 0010312 210.9748 149.0878 15.17027147 80324
NANOZOND 1 (RS49S)      
1 57190U 23091AA  24346.14134415  .00025905  00000+0  10965-2 0  9992
2 57190  97.5872  40.4307 0008309 211.9303 148.1431 15.23134101 80437
POLYTECH-UNIVERSE 3 (R*)
1 57191U 23091AB  24346.12271468  .00007864  00000+0  46952-3 0  9991
2 57191  97.5881  36.6192 0016978 240.5750 119.3786 15.11269230 80186
UTMN 2 (RS27S)          
1 57203U 23091AP  24346.14714174  .00014011  00000+0  73095-3 0  9993
2 57203  97.5909  38.6061 0010695 212.0995 147.9588 15.16013067 80304
ARCCUBE 1 (RS25S)       
1 57205U 23091AR  24346.14910256  .00034833  00000+0  13275-2 0  9991
2 57205  97.5822  41.0052 0008079 212.6169 147.4571 15.26593941 80481
KUZGTU 1 (RS47S)        
1 57217U 23091AV  24346.13971269  .00013388  00000+0  72678-3 0  9999
2 57217  97.5896  37.4596 0014298 226.6086 133.3956 15.14574628 80232
SONATE-2                
1 59112U 24043Q   24345.62106978  .00020335  00000+0  77468-3 0  9995
2 59112  97.4949 108.6734 0013331  39.1703 321.0498 15.26666941 42644
MESAT1                  
1 60209U 24125G   24346.12401208  .00020417  00000+0  77095-3 0  9992
2 60209  97.2988 194.6816 0024724  62.3755 297.9990 15.26748131 24339
OOV-CUBE (TUBSAT-30)    
1 60240U 24128F   24346.13519912  .00004974  00000+0  42836-3 0  9998
2 60240  61.9983 348.2397 0028909   7.9139 352.2400 14.98343115 23104
ARCTICSAT 1 (RS74S)     
1 61764U 24199AF  24346.11884230  .00022171  00000+0  85631-3 0  9993
2 61764  97.3799 210.4467 0012767 106.7820 253.4820 15.26196477 49354
TUSUR GO (RS78S)        
1 61782U 24199AZ  24346.15658619  .00021426  00000+0  86514-3 0  9990
2 61782  97.3800 210.3968 0019866 110.1368 250.2010 15.24609525 49363
